#aV2021 12  8  0  0  0.00000000     288 DD+AD WGS84 FIT  NGA
## 2187 259200.00000000   300.00000000 59556 0.0000000000000
+   32     1  2  3  4  5  6  7  8  9 10 11 12 13 14 15 16 17
+         18 19 20 21 22 23 24 25 26 27 28 29 30 31 32  0  0
+          0  0  0  0  0  0  0  0  0  0  0  0  0  0  0  0  0
+          0  0  0  0  0  0  0  0  0  0  0  0  0  0  0  0  0
+          0  0  0  0  0  0  0  0  0  0  0  0  0  0  0  0  0
++         2  2  2  2  2  2  2  2  2  2  2  2  2  2  2  2  2
++         2  2  2  2  2  2  2  2  2  2  2  2  2  2  2  0  0
++         0  0  0  0  0  0  0  0  0  0  0  0  0  0  0  0  0
++         0  0  0  0  0  0  0  0  0  0  0  0  0  0  0  0  0
++         0  0  0  0  0  0  0  0  0  0  0  0  0  0  0  0  0
%c cc cc ccc ccc cccc cccc cccc cccc ccccc ccccc ccccc ccccc
%c cc cc ccc ccc cccc cccc cccc cccc ccccc ccccc ccccc ccccc
%f  0.0000000  0.000000000  0.00000000000  0.000000000000000
%f  0.0000000  0.000000000  0.00000000000  0.000000000000000
%i    0    0    0    0      0      0      0      0         0
%i    0    0    0    0      0      0      0      0         0
/*      NGA, ST. LOUIS,MO.                                  
/*   EPHEMERIS COMPUTED FROM 2 DAYS OF DATA                 
/*   EPOCHA v7 SMOOTHER                                     
/*   G2139 IERS2010 SATIGS SATAPC                           
*  2021 12  8  2 25  0.00000000
P  1  13351.846915 -18126.007200  13540.818231    490.002702                    
V  1  -2127.616047  17719.088269  25631.927476     -0.102503                    
P  2 -14433.030523  -3600.994162 -21342.100594   -644.908905                    
V  2   4172.904315 -28378.219040   2002.179568     -0.013258                    
P  3  21502.577208 -13006.042988  -8545.662865    -34.769303                    
V  3  10921.418986  -1050.361806  29535.397770     -0.116664                    
P  4  12000.996255  -9506.644012 -21706.643490   -199.747841                    
V  4  19638.849389  19337.535480   2313.941781      0.012018                    
P  5 -25491.662558   4422.677921  -6509.196310    -63.655527                    
V  5   6647.435018  -5187.141051 -30173.944595     -0.012892                    
P  6  -6980.462629 -19420.891014 -16616.379465    137.017256                    
V  6   5930.712011 -20399.545313  21321.576112      0.098473                    
P  7   5075.621139 -25787.304975    959.792644    288.135128                    
V  7   3638.789521      0.964822 -31831.045839      0.047452                    
P  8  19724.403470    758.165274  17913.807166    -47.225980                    
V  8  16165.125547  15905.556834 -18133.369764     -0.014366                    
P  9    598.131470 -17974.737479 -19609.059018   -360.815717                    
V  9  19503.389589  15330.174482 -13538.632448      0.006205                    
P 10   5998.250657  13843.018741  21997.513204   -263.556645                    
V 10 -26241.663351   8477.205989   1544.114022     -0.088559                    
P 11 -13801.843396  -6790.557185 -21660.231844     14.691563                    
V 11   7641.268056 -26403.522749   3393.612098     -0.029254                    
P 12 -23264.369492  10654.242900  -7103.681968   -137.525971                    
V 12  -9028.758179   -285.871037  30357.405096     -0.055809                    
P 13 -20517.802008  -9488.731037  13914.020156    226.115571                    
V 13 -10019.071081 -14903.993550 -24514.447249      0.057800                    
P 14  -5094.228441 -14496.745427  21663.572699    -51.537758                    
V 14  26517.669166  -7403.216122   1223.801164     -0.063286                    
P 15 -19756.059052   1956.309151  17392.641978   -100.805548                    
V 15 -17478.616585 -14883.813964 -17445.456815      0.028206                    
P 16  25268.135998    741.792154  -9133.757930   -436.817076                    
V 16 -10420.315147   4217.319690 -28850.439465     -0.061081                    
P 17 -10844.893787 -21771.613346  11073.468842    544.390592                    
V 17  10636.925199   8317.513740  27913.614329      0.052592                    
P 18  -5152.255109  25956.361124   1490.514625    283.261767                    
V 18  -2975.417507   1244.185248 -31953.664341     -0.064156                    
P 19 -16700.399849 -20663.521556   1877.836910     89.301791                    
V 19   3357.697979    609.548135  31923.249425      0.049972                    
P 20 -21165.013905  -2269.675268 -15735.691142    517.749349                    
V 20  16892.801742 -11203.386321 -21384.800456     -0.001776                    
P 21  15459.268481  -9164.983696  20048.062330    153.150718                    
V 21  -1947.610824  24134.194064  13564.142457      0.010167                    
P 22  24368.168926 -10261.903258    629.675158   -446.644329                    
V 22    951.478843   3653.897058  31359.900020      0.090053                    
P 23  -7026.814676  16654.264000  19411.699658     24.313418                    
V 23 -23724.513020   6984.007909 -14651.774984     -0.042040                    
P 24 -14352.289985  14471.774826  16526.620344    273.373444                    
V 24    424.217789 -21920.049546  19644.673920      0.024114                    
P 25 -14198.789382  16169.356491 -15654.292980    252.389778                    
V 25 -19203.702491   4031.968604  22237.451470      0.057932                    
P 26  17019.801628   8279.042904 -18816.682830    162.856639                    
V 26 -21666.865337   9773.598463 -15052.599904      0.036762                    
P 27  22174.521932  10639.347260  10321.763069   -228.383676                    
V 27   8541.815865  10282.125414 -28067.588119     -0.045039                    
P 28 -12622.239911 -11723.010983  20693.427605    447.585397                    
V 28  24327.435730  -6291.093808  11792.560457     -0.076885                    
P 29  -5463.108701  14912.635811 -21320.013255   -450.997649                    
V 29 -18961.805579 -19123.003832  -8588.699537     -0.051221                    
P 30  -1979.866922 -24306.972816  10292.078512   -497.575753                    
V 30   6275.279873 -11970.357625 -27477.565778     -0.029837                    
P 31   8924.841511  17245.718951 -18020.808977   -153.955165                    
V 31  -7241.844215  21752.222134  17806.382123     -0.018778                    
P 32  15229.453546  20626.137802   7413.711125    -32.069359                    
V 32  -8591.489194  -4217.363961  29671.237755     -0.052577                    
EOF
